[{"OBJECT_NAME":"SES-2","OBJECT_ID":"2011-049A","EPOCH":"2026-03-14T13:13:45.007968","MEAN_MOTION":1.00272471,"ECCENTRICITY":0.00028206,"INCLINATION":0.0352,"RA_OF_ASC_NODE":73.8833,"ARG_OF_PERICENTER":282.8393,"MEAN_ANOMALY":286.8731,"EPHEMERIS_TYPE":0,"CLASSIFICATION_TYPE":"U","NORAD_CAT_ID":37809,"ELEMENT_SET_NO":999,"REV_AT_EPOCH":5301,"BSTAR":0,"MEAN_MOTION_DOT":-1.97e-6,"MEAN_MOTION_DDOT":0},{"OBJECT_NAME":"QUETZSAT 1","OBJECT_ID":"2011-054A","EPOCH":"2026-03-14T13:16:37.232544","MEAN_MOTION":1.00270217,"ECCENTRICITY":0.0002741,"INCLINATION":0.0315,"RA_OF_ASC_NODE":284.2908,"ARG_OF_PERICENTER":83.9499,"MEAN_ANOMALY":286.0598,"EPHEMERIS_TYPE":0,"CLASSIFICATION_TYPE":"U","NORAD_CAT_ID":37826,"ELEMENT_SET_NO":999,"REV_AT_EPOCH":4892,"BSTAR":0,"MEAN_MOTION_DOT":-2.42e-6,"MEAN_MOTION_DDOT":0},{"OBJECT_NAME":"SES-4","OBJECT_ID":"2012-007A","EPOCH":"2026-03-13T10:13:14.736000","MEAN_MOTION":1.00271455,"ECCENTRICITY":0.0002248,"INCLINATION":0.0334,"RA_OF_ASC_NODE":64.0215,"ARG_OF_PERICENTER":282.6021,"MEAN_ANOMALY":315.729,"EPHEMERIS_TYPE":0,"CLASSIFICATION_TYPE":"U","NORAD_CAT_ID":38087,"ELEMENT_SET_NO":999,"REV_AT_EPOCH":5126,"BSTAR":0,"MEAN_MOTION_DOT":-1.68e-6,"MEAN_MOTION_DDOT":0},{"OBJECT_NAME":"SES-5","OBJECT_ID":"2012-036A","EPOCH":"2026-03-13T08:52:38.561664","MEAN_MOTION":1.00273267,"ECCENTRICITY":0.00019334,"INCLINATION":0.0621,"RA_OF_ASC_NODE":308.2644,"ARG_OF_PERICENTER":45.9498,"MEAN_ANOMALY":314.9176,"EPHEMERIS_TYPE":0,"CLASSIFICATION_TYPE":"U","NORAD_CAT_ID":38652,"ELEMENT_SET_NO":999,"REV_AT_EPOCH":4349,"BSTAR":0,"MEAN_MOTION_DOT":3.4e-7,"MEAN_MOTION_DDOT":0},{"OBJECT_NAME":"ASTRA 2F","OBJECT_ID":"2012-051A","EPOCH":"2026-03-14T13:46:41.848608","MEAN_MOTION":1.00272536,"ECCENTRICITY":0.00020343,"INCLINATION":0.0735,"RA_OF_ASC_NODE":256.9139,"ARG_OF_PERICENTER":23.8855,"MEAN_ANOMALY":126.2349,"EPHEMERIS_TYPE":0,"CLASSIFICATION_TYPE":"U","NORAD_CAT_ID":38778,"ELEMENT_SET_NO":999,"REV_AT_EPOCH":4018,"BSTAR":0,"MEAN_MOTION_DOT":1.49e-6,"MEAN_MOTION_DDOT":0},{"OBJECT_NAME":"SES-6","OBJECT_ID":"2013-026A","EPOCH":"2026-03-14T11:44:23.576928","MEAN_MOTION":1.00271082,"ECCENTRICITY":0.00020486,"INCLINATION":0.0483,"RA_OF_ASC_NODE":301.5749,"ARG_OF_PERICENTER":73.4175,"MEAN_ANOMALY":292.6989,"EPHEMERIS_TYPE":0,"CLASSIFICATION_TYPE":"U","NORAD_CAT_ID":39172,"ELEMENT_SET_NO":999,"REV_AT_EPOCH":4677,"BSTAR":0,"MEAN_MOTION_DOT":-2.62e-6,"MEAN_MOTION_DDOT":0},{"OBJECT_NAME":"O3B FM5","OBJECT_ID":"2013-031A","EPOCH":"2026-03-14T11:48:20.150496","MEAN_MOTION":5.00116471,"ECCENTRICITY":0.00032893,"INCLINATION":0.0994,"RA_OF_ASC_NODE":11.3133,"ARG_OF_PERICENTER":333.1293,"MEAN_ANOMALY":15.5439,"EPHEMERIS_TYPE":0,"CLASSIFICATION_TYPE":"U","NORAD_CAT_ID":39188,"ELEMENT_SET_NO":999,"REV_AT_EPOCH":23229,"BSTAR":0,"MEAN_MOTION_DOT":-2.1e-7,"MEAN_MOTION_DDOT":0},{"OBJECT_NAME":"O3B FM4","OBJECT_ID":"2013-031B","EPOCH":"2026-03-13T09:52:53.892768","MEAN_MOTION":5.00115278,"ECCENTRICITY":0.00050987,"INCLINATION":0.0547,"RA_OF_ASC_NODE":345.1246,"ARG_OF_PERICENTER":15.5435,"MEAN_ANOMALY":359.3289,"EPHEMERIS_TYPE":0,"CLASSIFICATION_TYPE":"U","NORAD_CAT_ID":39189,"ELEMENT_SET_NO":999,"REV_AT_EPOCH":23224,"BSTAR":0,"MEAN_MOTION_DOT":-2.2e-7,"MEAN_MOTION_DDOT":0},{"OBJECT_NAME":"O3B FM2","OBJECT_ID":"2013-031C","EPOCH":"2026-03-14T06:38:49.768224","MEAN_MOTION":5.00116009,"ECCENTRICITY":0.00028222,"INCLINATION":0.055,"RA_OF_ASC_NODE":338.8712,"ARG_OF_PERICENTER":11.399,"MEAN_ANOMALY":9.7208,"EPHEMERIS_TYPE":0,"CLASSIFICATION_TYPE":"U","NORAD_CAT_ID":39190,"ELEMENT_SET_NO":999,"REV_AT_EPOCH":23236,"BSTAR":0,"MEAN_MOTION_DOT":-2.1e-7,"MEAN_MOTION_DDOT":0},{"OBJECT_NAME":"O3B PFM","OBJECT_ID":"2013-031D","EPOCH":"2026-03-06T02:17:37.197024","MEAN_MOTION":5.00115906,"ECCENTRICITY":0.00051477,"INCLINATION":0.0668,"RA_OF_ASC_NODE":7.2787,"ARG_OF_PERICENTER":352.3292,"MEAN_ANOMALY":0.3862,"EPHEMERIS_TYPE":0,"CLASSIFICATION_TYPE":"U","NORAD_CAT_ID":39191,"ELEMENT_SET_NO":999,"REV_AT_EPOCH":23151,"BSTAR":0,"MEAN_MOTION_DOT":-2.6e-7,"MEAN_MOTION_DDOT":0},{"OBJECT_NAME":"ASTRA 2E","OBJECT_ID":"2013-056A","EPOCH":"2026-03-14T13:46:41.848608","MEAN_MOTION":1.00269058,"ECCENTRICITY":0.0002624,"INCLINATION":0.0874,"RA_OF_ASC_NODE":45.3685,"ARG_OF_PERICENTER":301.4478,"MEAN_ANOMALY":60.5354,"EPHEMERIS_TYPE":0,"CLASSIFICATION_TYPE":"U","NORAD_CAT_ID":39285,"ELEMENT_SET_NO":999,"REV_AT_EPOCH":4546,"BSTAR":0,"MEAN_MOTION_DOT":1.49e-6,"MEAN_MOTION_DDOT":0},{"OBJECT_NAME":"SES-8","OBJECT_ID":"2013-071A","EPOCH":"2026-03-14T15:32:36.997152","MEAN_MOTION":1.00273148,"ECCENTRICITY":0.0001893,"INCLINATION":0.038,"RA_OF_ASC_NODE":263.8994,"ARG_OF_PERICENTER":123.4553,"MEAN_ANOMALY":113.0606,"EPHEMERIS_TYPE":0,"CLASSIFICATION_TYPE":"U","NORAD_CAT_ID":39460,"ELEMENT_SET_NO":999,"REV_AT_EPOCH":4349,"BSTAR":0,"MEAN_MOTION_DOT":-2.7e-6,"MEAN_MOTION_DDOT":0},{"OBJECT_NAME":"ASTRA 5B","OBJECT_ID":"2014-011B","EPOCH":"2026-03-13T15:30:26.765568","MEAN_MOTION":1.00275464,"ECCENTRICITY":0.00034177,"INCLINATION":0.0979,"RA_OF_ASC_NODE":295.8843,"ARG_OF_PERICENTER":40.8961,"MEAN_ANOMALY":90.6232,"EPHEMERIS_TYPE":0,"CLASSIFICATION_TYPE":"U","NORAD_CAT_ID":39617,"ELEMENT_SET_NO":999,"REV_AT_EPOCH":4370,"BSTAR":0,"MEAN_MOTION_DOT":1.37e-6,"MEAN_MOTION_DDOT":0},{"OBJECT_NAME":"O3B FM3","OBJECT_ID":"2014-038A","EPOCH":"2026-03-14T13:22:56.323776","MEAN_MOTION":5.00115628,"ECCENTRICITY":6.444e-5,"INCLINATION":0.0529,"RA_OF_ASC_NODE":353.7169,"ARG_OF_PERICENTER":62.9955,"MEAN_ANOMALY":303.2902,"EPHEMERIS_TYPE":0,"CLASSIFICATION_TYPE":"U","NORAD_CAT_ID":40079,"ELEMENT_SET_NO":999,"REV_AT_EPOCH":20830,"BSTAR":0,"MEAN_MOTION_DOT":-2.0e-7,"MEAN_MOTION_DDOT":0},{"OBJECT_NAME":"O3B FM7","OBJECT_ID":"2014-038B","EPOCH":"2026-03-13T07:18:15.302592","MEAN_MOTION":5.00115635,"ECCENTRICITY":0.00043845,"INCLINATION":0.0586,"RA_OF_ASC_NODE":348.607,"ARG_OF_PERICENTER":352.5506,"MEAN_ANOMALY":18.8225,"EPHEMERIS_TYPE":0,"CLASSIFICATION_TYPE":"U","NORAD_CAT_ID":40080,"ELEMENT_SET_NO":999,"REV_AT_EPOCH":21308,"BSTAR":0,"MEAN_MOTION_DOT":-2.2e-7,"MEAN_MOTION_DDOT":0},{"OBJECT_NAME":"O3B FM6","OBJECT_ID":"2014-038C","EPOCH":"2026-03-14T12:44:11.765472","MEAN_MOTION":5.00115702,"ECCENTRICITY":0.00026399,"INCLINATION":0.0547,"RA_OF_ASC_NODE":351.2967,"ARG_OF_PERICENTER":1.0784,"MEAN_ANOMALY":7.6174,"EPHEMERIS_TYPE":0,"CLASSIFICATION_TYPE":"U","NORAD_CAT_ID":40081,"ELEMENT_SET_NO":999,"REV_AT_EPOCH":21309,"BSTAR":0,"MEAN_MOTION_DOT":-2.0e-7,"MEAN_MOTION_DDOT":0},{"OBJECT_NAME":"O3B FM8","OBJECT_ID":"2014-038D","EPOCH":"2026-03-14T04:25:16.798080","MEAN_MOTION":5.00116014,"ECCENTRICITY":0.00026476,"INCLINATION":0.0555,"RA_OF_ASC_NODE":350.6132,"ARG_OF_PERICENTER":4.5116,"MEAN_ANOMALY":4.869,"EPHEMERIS_TYPE":0,"CLASSIFICATION_TYPE":"U","NORAD_CAT_ID":40082,"ELEMENT_SET_NO":999,"REV_AT_EPOCH":21319,"BSTAR":0,"MEAN_MOTION_DOT":-2.1e-7,"MEAN_MOTION_DDOT":0}]
